NORAD_CAT_ID,OBJECT_NAME,OBJECT_TYPE,EPOCH,MEAN_MOTION,ECCENTRICITY,INCLINATION,RA_OF_ASC_NODE,ARG_OF_PERICENTER,MEAN_ANOMALY,BSTAR,MEAN_MOTION_DOT,MEAN_MOTION_DDOT,TLE_LINE0,TLE_LINE1,TLE_LINE2,SEMIMAJOR_AXIS,PERIOD,APOGEE,PERIGEE,DECAYED
54179.0,STARLINK-5122,PAYLOAD,2024-06-20 11:49:11,15.08839014,0.0001233,53.2176,299.6098,90.6773,269.4361,7.3056e-05,8.75e-06,0.0,0 STARLINK-5122,1 54179U 22141Y   24172.49249643  .00000875  00000-0  73056-4 0  9998,2 54179  53.2176 299.6098 0001233  90.6773 269.4361 15.08839014 91174,6917.883,95.438,540.601,538.895,0.0
54179.0,STARLINK-5122,PAYLOAD,2024-06-20 14:59:58,15.0884065,0.0001211,53.2179,299.0174,87.6407,272.4724,3.5825e-05,2.82e-06,0.0,0 STARLINK-5122,1 54179U 22141Y   24172.62497705  .00000282  00000-0  35825-4 0  9991,2 54179  53.2179 299.0174 0001211  87.6407 272.4724 15.08840650 91199,6917.878,95.438,540.581,538.906,0.0
54179.0,STARLINK-5122,PAYLOAD,2024-06-21 13:15:22,15.08837916,0.0001133,53.2174,294.8532,94.3096,265.8026,6.866e-05,8.05e-06,0.0,0 STARLINK-5122,1 54179U 22141Y   24173.55233911  .00000805  00000-0  68660-4 0  9995,2 54179  53.2174 294.8532 0001133  94.3096 265.8026 15.08837916 91560,6917.887,95.438,540.536,538.968,0.0
54179.0,STARLINK-5122,PAYLOAD,2024-06-21 18:01:31,15.08843422,0.0001163,53.2179,293.9613,91.4436,268.6689,6.5542e-05,7.56e-06,0.0,0 STARLINK-5122,1 54179U 22141Y   24173.75105601  .00000756  00000-0  65542-4 0  9992,2 54179  53.2179 293.9613 0001163  91.4436 268.6689 15.08843422 91367,6917.87,95.437,540.539,538.93,0.0
54179.0,STARLINK-5122,PAYLOAD,2024-06-22 13:06:09,15.08831249,0.00012,53.2179,290.3924,97.4656,262.6472,0.00024656,3.637e-05,0.0,0 STARLINK-5122,1 54179U 22141Y   24174.54594185  .00003637  00000-0  24656-3 0  9990,2 54179  53.2179 290.3924 0001200  97.4656 262.6472 15.08831249 91486,6917.907,95.438,540.602,538.942,0.0
54179.0,STARLINK-5122,PAYLOAD,2024-06-22 14:41:32,15.08843165,0.0001244,53.218,290.0949,91.7854,268.3281,9.5513e-05,1.233e-05,0.0,0 STARLINK-5122,1 54179U 22141Y   24174.61217677  .00001233  00000-0  95513-4 0  9997,2 54179  53.2180 290.0949 0001244  91.7854 268.3281 15.08843165 91725,6917.871,95.437,540.596,538.875,0.0
54179.0,STARLINK-5122,PAYLOAD,2024-06-23 14:32:19,15.08841506,0.0001287,53.2186,285.6362,104.0431,256.0705,5.741e-05,6.26e-06,0.0,0 STARLINK-5122,1 54179U 22141Y   24175.60577947  .00000626  00000-0  57410-4 0  9995,2 54179  53.2186 285.6362 0001287 104.0431 256.0705 15.08841506 91649,6917.876,95.437,540.631,538.85,0.0
54179.0,STARLINK-5122,PAYLOAD,2024-06-24 14:23:05,15.08847675,0.0001264,53.2186,281.1784,101.4507,258.6628,9.2854e-05,1.19e-05,0.0,0 STARLINK-5122,1 54179U 22141Y   24176.59937406  .00001190  00000-0  92854-4 0  9992,2 54179  53.2186 281.1784 0001264 101.4507 258.6628 15.08847675 91799,6917.857,95.437,540.596,538.848,0.0
54179.0,STARLINK-5122,PAYLOAD,2024-06-25 12:38:31,15.08795548,0.000145,53.2185,277.0116,71.4938,288.6211,0.00058048,8.951e-05,0.0,0 STARLINK-5122,1 54179U 22141Y   24177.52675513  .00008951  00000-0  58048-3 0  9992,2 54179  53.2185 277.0116 0001450  71.4938 288.6211 15.08795548 92166,6918.016,95.44,540.884,538.878,0.0
54179.0,STARLINK-5122,PAYLOAD,2024-06-25 14:13:54,15.08831524,0.0001474,53.2194,276.7133,65.8712,294.2434,0.00011435,1.532e-05,0.0,0 STARLINK-5122,1 54179U 22141Y   24177.59298624  .00001532  00000-0  11435-3 0  9990,2 54179  53.2194 276.7133 0001474  65.8712 294.2434 15.08831524 91944,6917.906,95.438,540.791,538.752,0.0
54179.0,STARLINK-5122,PAYLOAD,2024-06-26 10:53:54,15.08845787,0.000139,53.2189,272.845,66.1544,293.9594,3.3981e-05,2.53e-06,0.0,0 STARLINK-5122,1 54179U 22141Y   24178.45409799  .00000253  00000-0  33981-4 0  9993,2 54179  53.2189 272.8450 0001390  66.1544 293.9594 15.08845787 92301,6917.863,95.437,540.689,538.766,0.0
54179.0,STARLINK-5122,PAYLOAD,2024-06-27 12:20:04,15.0884201,0.0001126,53.2172,268.091,85.2763,274.8358,4.7927e-05,4.75e-06,0.0,0 STARLINK-5122,1 54179U 22141Y   24179.51393983  .00000475  00000-0  47927-4 0  9999,2 54179  53.2172 268.0910 0001126  85.2763 274.8358 15.08842010 92462,6917.874,95.437,540.518,538.96,0.0
54179.0,STARLINK-5122,PAYLOAD,2024-06-28 12:10:50,15.08846282,0.0001389,53.2177,263.6281,100.124,259.9909,0.0001255,1.71e-05,0.0,0 STARLINK-5122,1 54179U 22141Y   24180.50753466  .00001710  00000-0  12550-3 0  9992,2 54179  53.2177 263.6281 0001389 100.1240 259.9909 15.08846282 92389,6917.861,95.437,540.687,538.765,0.0
54179.0,STARLINK-5122,PAYLOAD,2024-06-28 13:46:13,15.08853109,0.0001203,53.2166,263.3334,89.5405,270.5725,0.00018092,2.594e-05,0.0,0 STARLINK-5122,1 54179U 22141Y   24180.57376884  .00002594  00000-0  18092-3 0  9992,2 54179  53.2166 263.3334 0001203  89.5405 270.5725 15.08853109 92629,6917.84,95.437,540.538,538.873,0.0
54179.0,STARLINK-5122,PAYLOAD,2024-06-29 12:01:38,15.08836562,0.0001282,53.2173,259.1694,101.7671,258.3465,4.3883e-05,4.11e-06,0.0,0 STARLINK-5122,1 54179U 22141Y   24181.50114392  .00000411  00000-0  43883-4 0  9993,2 54179  53.2173 259.1694 0001282 101.7671 258.3465 15.08836562 92762,6917.891,95.438,540.643,538.869,0.0
54179.0,STARLINK-5122,PAYLOAD,2024-06-29 15:12:24,15.08838416,0.0001293,53.2176,258.5739,102.5843,257.5293,6.0449e-05,6.74e-06,0.0,0 STARLINK-5122,1 54179U 22141Y   24181.63362250  .00000674  00000-0  60449-4 0  9993,2 54179  53.2176 258.5739 0001293 102.5843 257.5293 15.08838416 92557,6917.885,95.438,540.645,538.856,0.0
54179.0,STARLINK-5122,PAYLOAD,2024-06-30 11:52:25,15.08844226,0.0001253,53.2162,254.7105,94.0673,266.0462,-2.589e-05,-7e-06,0.0,0 STARLINK-5122,1 54179U 22141Y   24182.49474414 -.00000700  00000-0 -25890-4 0  9997,2 54179  53.2162 254.7105 0001253  94.0673 266.0462 15.08844226 92682,6917.867,95.437,540.599,538.866,0.0
54179.0,STARLINK-5122,PAYLOAD,2024-06-30 21:24:44,15.08843691,0.0001253,53.2163,252.9267,93.5574,266.5562,-5.0333e-05,-1.089e-05,0.0,0 STARLINK-5122,1 54179U 22141Y   24182.89218471 -.00001089  00000-0 -50333-4 0  9991,2 54179  53.2163 252.9267 0001253  93.5574 266.5562 15.08843691 92744,6917.869,95.437,540.601,538.867,0.0
54179.0,STARLINK-5122,PAYLOAD,2024-07-01 13:18:36,15.08841025,0.0001265,53.2171,249.9536,103.067,257.0463,0.00018902,2.722e-05,0.0,0 STARLINK-5122,1 54179U 22141Y   24183.55458499  .00002722  00000-0  18902-3 0  9999,2 54179  53.2171 249.9536 0001265 103.0670 257.0463 15.08841025 92840,6917.877,95.437,540.617,538.867,0.0
54179.0,STARLINK-5122,PAYLOAD,2024-07-01 21:15:31,15.08841534,0.0001103,53.2163,248.4639,93.0707,267.0411,0.00010273,1.348e-05,0.0,0 STARLINK-5122,1 54179U 22141Y   24183.88578574  .00001348  00000-0  10273-3 0  9998,2 54179  53.2163 248.4639 0001103  93.0707 267.0411 15.08841534 92893,6917.876,95.437,540.504,538.978,0.0
54179.0,STARLINK-5122,PAYLOAD,2024-07-02 11:34:00,15.08833796,0.0001427,53.2171,245.7916,102.316,257.7992,6.4207e-05,7.34e-06,0.0,0 STARLINK-5122,1 54179U 22141Y   24184.48195492  .00000734  00000-0  64207-4 0  9994,2 54179  53.2171 245.7916 0001427 102.3160 257.7992 15.08833796 93214,6917.899,95.438,540.752,538.777,0.0
54179.0,STARLINK-5122,PAYLOAD,2024-07-02 13:09:24,15.08833613,0.0001411,53.217,245.4942,99.2938,260.8213,6.5553e-05,7.55e-06,0.0,0 STARLINK-5122,1 54179U 22141Y   24184.54819527  .00000755  00000-0  65553-4 0  9991,2 54179  53.2170 245.4942 0001411  99.2938 260.8213 15.08833613 92992,6917.9,95.438,540.741,538.789,0.0
54179.0,STARLINK-5122,PAYLOAD,2024-07-02 14:44:47,15.08834472,0.0001352,53.2169,245.1942,93.4682,266.6465,6.4627e-05,7.41e-06,0.0,0 STARLINK-5122,1 54179U 22141Y   24184.61443449  .00000741  00000-0  64627-4 0  9991,2 54179  53.2169 245.1942 0001352  93.4682 266.6465 15.08834472 93003,6917.897,95.438,540.698,538.827,0.0
54179.0,STARLINK-5122,PAYLOAD,2024-07-03 13:00:10,15.0884428,0.0001309,53.2166,241.031,88.4686,271.6456,5.7911e-05,6.34e-06,0.0,0 STARLINK-5122,1 54179U 22141Y   24185.54178990  .00000634  00000-0  57911-4 0  9999,2 54179  53.2166 241.0310 0001309  88.4686 271.6456 15.08844280 93378,6917.867,95.437,540.638,538.827,0.0
54179.0,STARLINK-5122,PAYLOAD,2024-07-03 20:57:06,15.08845942,0.0001277,53.2164,239.5443,92.6643,267.4496,3.0275e-05,1.94e-06,0.0,0 STARLINK-5122,1 54179U 22141Y   24185.87298855  .00000194  00000-0  30275-4 0  9993,2 54179  53.2164 239.5443 0001277  92.6643 267.4496 15.08845942 93192,6917.862,95.437,540.611,538.844,0.0
54179.0,STARLINK-5122,PAYLOAD,2024-07-04 12:50:57,15.08844001,0.0001282,53.216,236.5698,92.9124,267.2015,0.00011046,1.471e-05,0.0,0 STARLINK-5122,1 54179U 22141Y   24186.53538813  .00001471  00000-0  11046-3 0  9991,2 54179  53.2160 236.5698 0001282  92.9124 267.2015 15.08844001 93291,6917.868,95.437,540.62,538.846,0.0
54179.0,STARLINK-5122,PAYLOAD,2024-07-04 20:47:53,15.08833014,0.0001242,53.2156,235.082,97.3225,262.7908,0.00016343,2.314e-05,0.0,0 STARLINK-5122,1 54179U 22141Y   24186.86659466  .00002314  00000-0  16343-3 0  9997,2 54179  53.2156 235.0820 0001242  97.3225 262.7908 15.08833014 93578,6917.902,95.438,540.626,538.908,0.0
54179.0,STARLINK-5122,PAYLOAD,2024-07-05 09:30:58,15.08845972,0.0001303,53.2157,232.7029,94.0764,266.0377,2.5192e-05,1.13e-06,0.0,0 STARLINK-5122,1 54179U 22141Y   24187.39650859  .00000113  00000-0  25192-4 0  9991,2 54179  53.2157 232.7029 0001303  94.0764 266.0377 15.08845972 93656,6917.862,95.437,540.629,538.826,0.0
54179.0,STARLINK-5122,PAYLOAD,2024-07-05 20:38:40,15.08834204,0.0001275,53.2151,230.6216,95.5763,264.5374,0.00017846,2.553e-05,0.0,0 STARLINK-5122,1 54179U 22141Y   24187.86019233  .00002553  00000-0  17846-3 0  9994,2 54179  53.2151 230.6216 0001275  95.5763 264.5374 15.08834204 93722,6917.898,95.438,540.645,538.881,0.0
54179.0,STARLINK-5122,PAYLOAD,2024-07-06 09:21:45,15.08834502,0.0001348,53.2156,228.2429,93.6454,266.4693,5.3081e-05,5.57e-06,0.0,0 STARLINK-5122,1 54179U 22141Y   24188.39011450  .00000557  00000-0  53081-4 0  9990,2 54179  53.2156 228.2429 0001348  93.6454 266.4693 15.08834502 93572,6917.897,95.438,540.695,538.83,0.0
